UMBRA-07                
1 58297U 23174AT  26068.71829358  .00012685  00000+0  84614-3 0  9990
2 58297  97.3902 128.3323 0004131  75.5473 284.6213 15.07174057128425
STARLINK-35064          
1 65531U 25200M   26068.71296802  .00003955  00000+0  27821-3 0  9990
2 65531  97.6022 139.8093 0000968 132.5439 227.5870 15.05638857 29135
