[{"OBJECT_NAME":"UMBRA-07","OBJECT_ID":"2023-174AT","EPOCH":"2026-03-09T17:14:20.565312","MEAN_MOTION":15.07174057,"ECCENTRICITY":0.00041314,"INCLINATION":97.3902,"RA_OF_ASC_NODE":128.3323,"ARG_OF_PERICENTER":75.5473,"MEAN_ANOMALY":284.6213,"EPHEMERIS_TYPE":0,"CLASSIFICATION_TYPE":"U","NORAD_CAT_ID":58297,"ELEMENT_SET_NO":999,"REV_AT_EPOCH":12842,"BSTAR":0.0008461425,"MEAN_MOTION_DOT":0.00012685,"MEAN_MOTION_DDOT":0},{"OBJECT_NAME":"STARLINK-35064","OBJECT_ID":"2025-200M","EPOCH":"2026-03-09T17:06:40.437792","MEAN_MOTION":15.05638857,"ECCENTRICITY":9.683e-5,"INCLINATION":97.6022,"RA_OF_ASC_NODE":139.8093,"ARG_OF_PERICENTER":132.5439,"MEAN_ANOMALY":227.587,"EPHEMERIS_TYPE":0,"CLASSIFICATION_TYPE":"U","NORAD_CAT_ID":65531,"ELEMENT_SET_NO":999,"REV_AT_EPOCH":2913,"BSTAR":0.00027821109,"MEAN_MOTION_DOT":3.955e-5,"MEAN_MOTION_DDOT":0}]
